EARTHCARE               
1 59908U 24101A   24272.38587263  .00025844  00000+0  36134-3 0  9990
2 59908  96.9902  37.8622 0002543  97.1803 262.9742 15.56813057 19034
